{
    "links": {
        "self": "http://www.neowsapp.com/rest/v1/neo/3613396?api_key=iIulBulltgU6a56xZRHN4H3l9WmuAYTsLGpBGhQ2"
    },
    "id": "3613396",
    "neo_reference_id": "3613396",
    "name": "(2012 UB69)",
    "designation": "2012 UB69",
    "nasa_jpl_url": "http://ssd.jpl.nasa.gov/sbdb.cgi?sstr=3613396",
    "absolute_magnitude_h": 22.0,
    "estimated_diameter": {
        "kilometers": {
            "estimated_diameter_min": 0.1058168859,
            "estimated_diameter_max": 0.2366137501
        },
        "meters": {
            "estimated_diameter_min": 105.8168859331,
            "estimated_diameter_max": 236.6137501138
        },
        "miles": {
            "estimated_diameter_min": 0.0657515442,
            "estimated_diameter_max": 0.1470249225
        },
        "feet": {
            "estimated_diameter_min": 347.1682720448,
            "estimated_diameter_max": 776.2918559233
        }
    },
    "is_potentially_hazardous_asteroid": false,
    "close_approach_data": [
        {
            "close_approach_date": "2009-10-06",
            "close_approach_date_full": "2009-Oct-06 07:57",
            "epoch_date_close_approach": 1254815820000,
            "relative_velocity": {
                "kilometers_per_second": "22.510418576",
                "kilometers_per_hour": "81037.5068735438",
                "miles_per_hour": "50353.5553126195"
            },
            "miss_distance": {
                "astronomical": "0.4321351394",
                "lunar": "168.1005692266",
                "kilometers": "64646496.406393078",
                "miles": "40169470.1838493564"
            },
            "orbiting_body": "Earth"
        },
        {
            "close_approach_date": "2012-10-26",
            "close_approach_date_full": "2012-Oct-26 00:56",
            "epoch_date_close_approach": 1351212960000,
            "relative_velocity": {
                "kilometers_per_second": "16.6379208818",
                "kilometers_per_hour": "59896.515174538",
                "miles_per_hour": "37217.3652205344"
            },
            "miss_distance": {
                "astronomical": "0.1413020608",
                "lunar": "54.9665016512",
                "kilometers": "21138487.322290496",
                "miles": "13134846.9511250048"
            },
            "orbiting_body": "Earth"
        }
    ],
    "orbital_data": {
        "orbit_id": "12",
        "orbit_determination_date": "2017-04-06 08:48:22",
        "first_observation_date": "2012-10-22",
        "last_observation_date": "2012-11-18",
        "data_arc_in_days": 27,
        "observations_used": 36,
        "orbit_uncertainty": "7",
        "minimum_orbit_intersection": ".110958",
        "jupiter_tisserand_invariant": "3.431",
        "epoch_osculation": "2459000.5",
        "eccentricity": ".4900445842169675",
        "semi_major_axis": "2.114535777310472",
        "inclination": "29.14167363740012",
        "ascending_node_longitude": "207.17908961445",
        "orbital_period": "1123.106610284599",
        "perihelion_distance": "1.07831897150646",
        "perihelion_argument": "203.8361623698373",
        "aphelion_distance": "3.150752583114485",
        "perihelion_time": "2458496.115910380932",
        "mean_anomaly": "161.6750098344199",
        "mean_motion": ".3205394721243559",
        "equinox": "J2000",
        "orbit_class": {
            "orbit_class_type": "AMO",
            "orbit_class_description": "Near-Earth asteroid orbits similar to that of 1221 Amor",
            "orbit_class_range": "1.017 AU < q (perihelion) < 1.3 AU"
        }
    },
    "is_sentry_object": false
}